{"type": "FeatureCollection", "features": [ {"type": "Feature", "properties": {"norad_id": 66945, "name": "STARLINK-36110", "group": "last-30-days", "lat": 39.229570002760674, "lon": 53.1153745519362, "alt_km": 327.6785631628318, "timestamp": "2025-12-19T16:54:42.969791+00:00", "meta": {"OBJECT_NAME": "STARLINK-36110", "OBJECT_ID": "2025-286W", "EPOCH": "2025-12-19T06:00:02.000160", "MEAN_MOTION": 15.80545066, "ECCENTRICITY": 7.152e-05, "INCLINATION": 53.1549, "RA_OF_ASC_NODE": 17.6404, "ARG_OF_PERICENTER": 82.2173, "MEAN_ANOMALY": 262.9604, "EPHEMERIS_TYPE": 0, "CLASSIFICATION_TYPE": "U", "NORAD_CAT_ID": 66945, "ELEMENT_SET_NO": 999, "REV_AT_EPOCH": 303, "BSTAR": -0.0090750177, "MEAN_MOTION_DOT": -0.01549119, "MEAN_MOTION_DDOT": 0}, "tle": {"line1": "1 66945U 25286W   25353.25002315 -.01549119  00000+0 -90750-2 0  9993", "line2": "2 66945  53.1549  17.6404 0000715  82.2173 262.9604 15.80545066  3032"}}, "geometry": {"type": "Point", "coordinates": [53.1153745519362, 39.229570002760674]}}, {"type": "Feature", "properties": {"norad_id": 66946, "name": "STARLINK-36115", "group": "last-30-days", "lat": 40.5559539276439, "lon": 55.28084365338761, "alt_km": 327.51543312466583, "timestamp": "2025-12-19T16:54:42.969801+00:00", "meta": {"OBJECT_NAME": "STARLINK-36115", "OBJECT_ID": "2025-286X", "EPOCH": "2025-12-19T06:00:02.000160", "MEAN_MOTION": 15.80525875, "ECCENTRICITY": 7.312e-05, "INCLINATION": 53.1548, "RA_OF_ASC_NODE": 17.6361, "ARG_OF_PERICENTER": 80.9288, "MEAN_ANOMALY": 266.412, "EPHEMERIS_TYPE": 0, "CLASSIFICATION_TYPE": "U", "NORAD_CAT_ID": 66946, "ELEMENT_SET_NO": 999, "REV_AT_EPOCH": 303, "BSTAR": -0.0091308306, "MEAN_MOTION_DOT": -0.01556249, "MEAN_MOTION_DDOT": 0}, "tle": {"line1": "1 66946U 25286X   25353.25002315 -.01556249  00000+0 -91308-2 0  9996", "line2": "2 66946  53.1548  17.6361 0000731  80.9288 266.4120 15.80525875  3032"}}, "geometry": {"type": "Point", "coordinates": [55.28084365338761, 40.5559539276439]}}, {"type": "Feature", "properties": {"norad_id": 66947, "name": "STARLINK-36089", "group": "last-30-days", "lat": 43.1502443807804, "lon": 60.016359504747705, "alt_km": 327.1699771694657, "timestamp": "2025-12-19T16:54:42.969811+00:00", "meta": {"OBJECT_NAME": "STARLINK-36089", "OBJECT_ID": "2025-286Y", "EPOCH": "2025-12-19T06:00:02.000160", "MEAN_MOTION": 15.80469118, "ECCENTRICITY": 9.297e-05, "INCLINATION": 53.1548, "RA_OF_ASC_NODE": 17.6271, "ARG_OF_PERICENTER": 79.8159, "MEAN_ANOMALY": 272.0105, "EPHEMERIS_TYPE": 0, "CLASSIFICATION_TYPE": "U", "NORAD_CAT_ID": 66947, "ELEMENT_SET_NO": 999, "REV_AT_EPOCH": 303, "BSTAR": -0.0092711398, "MEAN_MOTION_DOT": -0.01573637, "MEAN_MOTION_DDOT": 0}, "tle": {"line1": "1 66947U 25286Y   25353.25002315 -.01573637  00000+0 -92711-2 0  9996", "line2": "2 66947  53.1548  17.6271 0000929  79.8159 272.0105 15.80469118  3039"}}, "geometry": {"type": "Point", "coordinates": [60.016359504747705, 43.1502443807804]}}, {"type": "Feature", "properties": {"norad_id": 66948, "name": "STARLINK-36116", "group": "last-30-days", "lat": 41.962770258197054, "lon": 57.756351159122225, "alt_km": 327.4459868800959, "timestamp": "2025-12-19T16:54:42.969823+00:00", "meta": {"OBJECT_NAME": "STARLINK-36116", "OBJECT_ID": "2025-286Z", "EPOCH": "2025-12-19T06:00:02.000160", "MEAN_MOTION": 15.80474452, "ECCENTRICITY": 7.385e-05, "INCLINATION": 53.1549, "RA_OF_ASC_NODE": 17.6314, "ARG_OF_PERICENTER": 80.0909, "MEAN_ANOMALY": 269.6738, "EPHEMERIS_TYPE": 0, "CLASSIFICATION_TYPE": "U", "NORAD_CAT_ID": 66948, "ELEMENT_SET_NO": 999, "REV_AT_EPOCH": 303, "BSTAR": -0.0092101278, "MEAN_MOTION_DOT": -0.01564789, "MEAN_MOTION_DDOT": 0}, "tle": {"line1": "1 66948U 25286Z   25353.25002315 -.01564789  00000+0 -92101-2 0  9998", "line2": "2 66948  53.1549  17.6314 0000738  80.0909 269.6738 15.80474452  3035"}}, "geometry": {"type": "Point", "coordinates": [57.756351159122225, 41.962770258197054]}}, {"type": "Feature", "properties": {"norad_id": 66949, "name": "STARLINK-36096", "group": "last-30-days", "lat": 44.30367610004959, "lon": 62.38967099706288, "alt_km": 327.15736944355103, "timestamp": "2025-12-19T16:54:42.969835+00:00", "meta": {"OBJECT_NAME": "STARLINK-36096", "OBJECT_ID": "2025-286AA", "EPOCH": "2025-12-19T06:00:02.000160", "MEAN_MOTION": 15.80457233, "ECCENTRICITY": 7.388e-05, "INCLINATION": 53.1551, "RA_OF_ASC_NODE": 17.6225, "ARG_OF_PERICENTER": 79.9334, "MEAN_ANOMALY": 273.9826, "EPHEMERIS_TYPE": 0, "CLASSIFICATION_TYPE": "U", "NORAD_CAT_ID": 66949, "ELEMENT_SET_NO": 999, "REV_AT_EPOCH": 303, "BSTAR": -0.0093115964, "MEAN_MOTION_DOT": -0.01578728, "MEAN_MOTION_DDOT": 0}, "tle": {"line1": "1 66949U 25286AA  25353.25002315 -.01578728  00000+0 -93116-2 0  9994", "line2": "2 66949  53.1551  17.6225 0000738  79.9334 273.9826 15.80457233  3033"}}, "geometry": {"type": "Point", "coordinates": [62.38967099706288, 44.30367610004959]}}, {"type": "Feature", "properties": {"norad_id": 66950, "name": "STARLINK-36111", "group": "last-30-days", "lat": 46.49408758640324, "lon": 67.52770302965259, "alt_km": 326.8568037254854, "timestamp": "2025-12-19T16:54:42.969845+00:00", "meta": {"OBJECT_NAME": "STARLINK-36111", "OBJECT_ID": "2025-286AB", "EPOCH": "2025-12-19T06:00:02.000160", "MEAN_MOTION": 15.80423004, "ECCENTRICITY": 8.733e-05, "INCLINATION": 53.1549, "RA_OF_ASC_NODE": 17.6138, "ARG_OF_PERICENTER": 78.1952, "MEAN_ANOMALY": 280.0088, "EPHEMERIS_TYPE": 0, "CLASSIFICATION_TYPE": "U", "NORAD_CAT_ID": 66950, "ELEMENT_SET_NO": 999, "REV_AT_EPOCH": 303, "BSTAR": -0.0094305605, "MEAN_MOTION_DOT": -0.01594182, "MEAN_MOTION_DDOT": 0}, "tle": {"line1": "1 66950U 25286AB  25353.25002315 -.01594182  00000+0 -94306-2 0  9990", "line2": "2 66950  53.1549  17.6138 0000873  78.1952 280.0088 15.80423004  3030"}}, "geometry": {"type": "Point", "coordinates": [67.52770302965259, 46.49408758640324]}}, {"type": "Feature", "properties": {"norad_id": 66951, "name": "STARLINK-35999", "group": "last-30-days", "lat": 47.52521400958405, "lon": 70.3252793223232, "alt_km": 326.82362756257226, "timestamp": "2025-12-19T16:54:42.969855+00:00", "meta": {"OBJECT_NAME": "STARLINK-35999", "OBJECT_ID": "2025-286AC", "EPOCH": "2025-12-19T06:00:02.000160", "MEAN_MOTION": 15.80396532, "ECCENTRICITY": 8.565e-05, "INCLINATION": 53.155, "RA_OF_ASC_NODE": 17.6092, "ARG_OF_PERICENTER": 81.1888, "MEAN_ANOMALY": 279.2346, "EPHEMERIS_TYPE": 0, "CLASSIFICATION_TYPE": "U", "NORAD_CAT_ID": 66951, "ELEMENT_SET_NO": 999, "REV_AT_EPOCH": 303, "BSTAR": -0.0095022254, "MEAN_MOTION_DOT": -0.01602992, "MEAN_MOTION_DDOT": 0}, "tle": {"line1": "1 66951U 25286AC  25353.25002315 -.01602992  00000+0 -95022-2 0  9996", "line2": "2 66951  53.1550  17.6092 0000856  81.1888 279.2346 15.80396532  3037"}}, "geometry": {"type": "Point", "coordinates": [70.3252793223232, 47.52521400958405]}}, {"type": "Feature", "properties": {"norad_id": 66952, "name": "STARLINK-36122", "group": "last-30-days", "lat": 45.43829309816035, "lon": 64.93335792962431, "alt_km": 326.93271065209683, "timestamp": "2025-12-19T16:54:42.969865+00:00", "meta": {"OBJECT_NAME": "STARLINK-36122", "OBJECT_ID": "2025-286AD", "EPOCH": "2025-12-19T06:00:02.000160", "MEAN_MOTION": 15.80436234, "ECCENTRICITY": 9.137e-05, "INCLINATION": 53.1552, "RA_OF_ASC_NODE": 17.6185, "ARG_OF_PERICENTER": 78.1043, "MEAN_ANOMALY": 277.9817, "EPHEMERIS_TYPE": 0, "CLASSIFICATION_TYPE": "U", "NORAD_CAT_ID": 66952, "ELEMENT_SET_NO": 999, "REV_AT_EPOCH": 303, "BSTAR": -0.0093681942, "MEAN_MOTION_DOT": -0.0158587, "MEAN_MOTION_DDOT": 0}, "tle": {"line1": "1 66952U 25286AD  25353.25002315 -.01585870  00000+0 -93682-2 0  9992", "line2": "2 66952  53.1552  17.6185 0000913  78.1043 277.9817 15.80436234  3038"}}, "geometry": {"type": "Point", "coordinates": [64.93335792962431, 45.43829309816035]}}, {"type": "Feature", "properties": {"norad_id": 66953, "name": "HULIANWANG DIGUI-114", "group": "last-30-days", "lat": -82.33209285997074, "lon": -43.44746582587153, "alt_km": 1016.4629436107198, "timestamp": "2025-12-19T16:54:42.969875+00:00", "meta": {"OBJECT_NAME": "HULIANWANG DIGUI-114", "OBJECT_ID": "2025-287A", "EPOCH": "2025-12-18T14:58:33.375360", "MEAN_MOTION": 13.67416524, "ECCENTRICITY": 0.00087038, "INCLINATION": 86.4968, "RA_OF_ASC_NODE": 344.0089, "ARG_OF_PERICENTER": 188.5983, "MEAN_ANOMALY": 171.5028, "EPHEMERIS_TYPE": 0, "CLASSIFICATION_TYPE": "U", "NORAD_CAT_ID": 66953, "ELEMENT_SET_NO": 999, "REV_AT_EPOCH": 133, "BSTAR": 1.0869035e-05, "MEAN_MOTION_DOT": 2.6e-07, "MEAN_MOTION_DDOT": 0}, "tle": {"line1": "1 66953U 25287A   25352.62399740  .00000026  00000+0  10869-4 0  9995", "line2": "2 66953  86.4968 344.0089 0008703 188.5983 171.5028 13.67416524  1330"}}, "geometry": {"type": "Point", "coordinates": [-43.44746582587153, -82.33209285997074]}}, {"type": "Feature", "properties": {"norad_id": 66954, "name": "HULIANWANG DIGUI-115", "group": "last-30-days", "lat": -78.57592206062229, "lon": -34.02038846432953, "alt_km": 1016.6004136443853, "timestamp": "2025-12-19T16:54:42.969886+00:00", "meta": {"OBJECT_NAME": "HULIANWANG DIGUI-115", "OBJECT_ID": "2025-287B", "EPOCH": "2025-12-18T14:57:30.566880", "MEAN_MOTION": 13.67541232, "ECCENTRICITY": 0.00089471, "INCLINATION": 86.4978, "RA_OF_ASC_NODE": 344.0137, "ARG_OF_PERICENTER": 187.4507, "MEAN_ANOMALY": 172.652, "EPHEMERIS_TYPE": 0, "CLASSIFICATION_TYPE": "U", "NORAD_CAT_ID": 66954, "ELEMENT_SET_NO": 999, "REV_AT_EPOCH": 133, "BSTAR": 1.0944943e-05, "MEAN_MOTION_DOT": 2.6e-07, "MEAN_MOTION_DDOT": 0}, "tle": {"line1": "1 66954U 25287B   25352.62327045  .00000026  00000+0  10945-4 0  9990", "line2": "2 66954  86.4978 344.0137 0008947 187.4507 172.6520 13.67541232  1330"}}, "geometry": {"type": "Point", "coordinates": [-34.02038846432953, -78.57592206062229]}}]}